start=new Date('2023-06-22T00:00:00.000Z').valueOf();
sats=[{"EPOCH":"2023-06-21T13:39:29.160864","ELEMENT_SET_NO":"999","MEAN_ANOMALY":"272.8905","CLASSIFICATION_TYPE":"U","REV_AT_EPOCH":"8576","INCLINATION":"53.2147","MEAN_ELEMENT_THEORY":"SGP4","EPHEMERIS_TYPE":"0","BSTAR":"0.00007192100000","MEAN_MOTION_DOT":"0.00000857","MEAN_MOTION_DDOT":"0.0000000000000","TLE_LINE2":"2 49751  53.2147 282.8933 0001199  87.2225 272.8905 15.08843533 85760","LAUNCH_DATE":"2021-12-02","SEMIMAJOR_AXIS":"6917.870","OBJECT_TYPE":"PAYLOAD","OBJECT_ID":"2021-115AD","OBJECT_NAME":"STARLINK-3229","TIME_SYSTEM":"UTC","ECCENTRICITY":"0.00011990","FILE":"3939133","GP_ID":"234432812","MEAN_MOTION":"15.08843533","DECAY_DATE":null,"CENTER_NAME":"EARTH","COUNTRY_CODE":"US","PERIAPSIS":"538.905","APOAPSIS":"540.564","TLE_LINE1":"1 49751U 21115AD  23172.56908751  .00000857  00000-0  71921-4 0  9996","SITE":"AFETR","REF_FRAME":"TEME","RA_OF_ASC_NODE":"282.8933","ARG_OF_PERICENTER":"87.2225","RCS_SIZE":"LARGE","PERIOD":"95.437","NORAD_CAT_ID":"49751"},{"APOAPSIS":"540.231","NORAD_CAT_ID":"49752","RCS_SIZE":"LARGE","ARG_OF_PERICENTER":"82.1414","PERIOD":"95.437","RA_OF_ASC_NODE":"273.0981","REF_FRAME":"TEME","SITE":"AFETR","TLE_LINE1":"1 49752U 21115AE  23172.53321002  .00000435  00000-0  45403-4 0  9990","TIME_SYSTEM":"UTC","PERIAPSIS":"539.235","COUNTRY_CODE":"US","CENTER_NAME":"EARTH","DECAY_DATE":null,"MEAN_MOTION":"15.08844107","GP_ID":"234434063","ECCENTRICITY":"0.00007200","FILE":"3939133","LAUNCH_DATE":"2021-12-02","TLE_LINE2":"2 49752  53.2180 273.0981 0000720  82.1414 277.9659 15.08844107 85890","MEAN_MOTION_DDOT":"0.0000000000000","MEAN_MOTION_DOT":"0.00000435","OBJECT_NAME":"STARLINK-3209","OBJECT_ID":"2021-115AE","OBJECT_TYPE":"PAYLOAD","SEMIMAJOR_AXIS":"6917.868","MEAN_ANOMALY":"277.9659","CLASSIFICATION_TYPE":"U","ELEMENT_SET_NO":"999","EPOCH":"2023-06-21T12:47:49.345728","BSTAR":"0.00004540300000","EPHEMERIS_TYPE":"0","MEAN_ELEMENT_THEORY":"SGP4","REV_AT_EPOCH":"8589","INCLINATION":"53.2180"},{"OBJECT_NAME":"STARLINK-3200","OBJECT_ID":"2021-115AF","SEMIMAJOR_AXIS":"6917.870","OBJECT_TYPE":"PAYLOAD","TLE_LINE2":"2 49753  53.2174 282.8782 0000939  92.8738 267.2362 15.08843403 85767","LAUNCH_DATE":"2021-12-02","MEAN_MOTION_DOT":"-0.00000134","MEAN_MOTION_DDOT":"0.0000000000000","EPHEMERIS_TYPE":"0","BSTAR":"0.00000964000000","INCLINATION":"53.2174","REV_AT_EPOCH":"8576","MEAN_ELEMENT_THEORY":"SGP4","EPOCH":"2023-06-21T13:54:00.377856","MEAN_ANOMALY":"267.2362","CLASSIFICATION_TYPE":"U","ELEMENT_SET_NO":"999","PERIOD":"95.437","RCS_SIZE":"LARGE","ARG_OF_PERICENTER":"92.8738","NORAD_CAT_ID":"49753","REF_FRAME":"TEME","SITE":"AFETR","TLE_LINE1":"1 49753U 21115AF  23172.57917104 -.00000134  00000-0  96400-5 0  9990","RA_OF_ASC_NODE":"282.8782","APOAPSIS":"540.385","CENTER_NAME":"EARTH","DECAY_DATE":null,"COUNTRY_CODE":"US","PERIAPSIS":"539.085","GP_ID":"234434311","FILE":"3939133","ECCENTRICITY":"0.00009390","MEAN_MOTION":"15.08843403","TIME_SYSTEM":"UTC"},{"RA_OF_ASC_NODE":"273.1781","TLE_LINE1":"1 49754U 21115AG  23172.53594513  .00002641  00000-0  18390-3 0  9996","REF_FRAME":"TEME","SITE":"AFETR","NORAD_CAT_ID":"49754","RCS_SIZE":"LARGE","PERIOD":"95.437","ARG_OF_PERICENTER":"88.0539","APOAPSIS":"540.300","MEAN_MOTION":"15.08845358","FILE":"3939133","ECCENTRICITY":"0.00008260","GP_ID":"234432562","PERIAPSIS":"539.158","COUNTRY_CODE":"US","DECAY_DATE":null,"CENTER_NAME":"EARTH","TIME_SYSTEM":"UTC","OBJECT_TYPE":"PAYLOAD","SEMIMAJOR_AXIS":"6917.864","OBJECT_ID":"2021-115AG","OBJECT_NAME":"STARLINK-3193","MEAN_MOTION_DDOT":"0.0000000000000","MEAN_MOTION_DOT":"0.00002641","LAUNCH_DATE":"2021-12-02","TLE_LINE2":"2 49754  53.2160 273.1781 0000826  88.0539 272.0547 15.08845358 85890","MEAN_ELEMENT_THEORY":"SGP4","REV_AT_EPOCH":"8589","INCLINATION":"53.2160","EPHEMERIS_TYPE":"0","BSTAR":"0.00018390000000","ELEMENT_SET_NO":"999","MEAN_ANOMALY":"272.0547","CLASSIFICATION_TYPE":"U","EPOCH":"2023-06-21T12:51:45.659232"},{"TIME_SYSTEM":"UTC","DECAY_DATE":null,"CENTER_NAME":"EARTH","PERIAPSIS":"539.058","COUNTRY_CODE":"US","FILE":"3939133","ECCENTRICITY":"0.00009640","GP_ID":"234433312","MEAN_MOTION":"15.08846686","APOAPSIS":"540.392","PERIOD":"95.437","RCS_SIZE":"LARGE","ARG_OF_PERICENTER":"83.7976","NORAD_CAT_ID":"49755","TLE_LINE1":"1 49755U 21115AH  23172.58653168  .00000544  00000-0  52222-4 0  9997","REF_FRAME":"TEME","SITE":"AFETR","RA_OF_ASC_NODE":"282.8463","EPOCH":"2023-06-21T14:04:36.337152","ELEMENT_SET_NO":"999","MEAN_ANOMALY":"276.3126","CLASSIFICATION_TYPE":"U","EPHEMERIS_TYPE":"0","BSTAR":"0.00005222200000","REV_AT_EPOCH":"8576","INCLINATION":"53.2160","MEAN_ELEMENT_THEORY":"SGP4","TLE_LINE2":"2 49755  53.2160 282.8463 0000964  83.7976 276.3126 15.08846686 85766","LAUNCH_DATE":"2021-12-02","MEAN_MOTION_DDOT":"0.0000000000000","MEAN_MOTION_DOT":"0.00000544","OBJECT_ID":"2021-115AH","OBJECT_NAME":"STARLINK-3210","SEMIMAJOR_AXIS":"6917.860","OBJECT_TYPE":"PAYLOAD"},{"OBJECT_ID":"2021-115AJ","OBJECT_NAME":"STARLINK-3207","OBJECT_TYPE":"PAYLOAD","SEMIMAJOR_AXIS":"6917.866","LAUNCH_DATE":"2021-12-02","TLE_LINE2":"2 49756  53.2135 273.0414 0000881  79.2719 280.8372 15.08844777 85896","MEAN_MOTION_DOT":"0.00002060","MEAN_MOTION_DDOT":"0.0000000000000","EPHEMERIS_TYPE":"0","BSTAR":"0.00014743000000","MEAN_ELEMENT_THEORY":"SGP4","INCLINATION":"53.2135","REV_AT_EPOCH":"8589","ELEMENT_SET_NO":"999","CLASSIFICATION_TYPE":"U","MEAN_ANOMALY":"280.8372","EPOCH":"2023-06-21T13:02:20.392512","NORAD_CAT_ID":"49756","RCS_SIZE":"LARGE","ARG_OF_PERICENTER":"79.2719","PERIOD":"95.437","RA_OF_ASC_NODE":"273.0414","TLE_LINE1":"1 49756U 21115AJ  23172.54329158  .00002060  00000-0  14743-3 0  9993","REF_FRAME":"TEME","SITE":"AFETR","APOAPSIS":"540.340","PERIAPSIS":"539.121","COUNTRY_CODE":"US","DECAY_DATE":null,"CENTER_NAME":"EARTH","MEAN_MOTION":"15.08844777","FILE":"3939133","ECCENTRICITY":"0.00008810","GP_ID":"234433564","TIME_SYSTEM":"UTC"},{"MEAN_MOTION":"15.08843235","FILE":"3939133","ECCENTRICITY":"0.00008430","GP_ID":"234433812","COUNTRY_CODE":"US","PERIAPSIS":"539.152","DECAY_DATE":null,"CENTER_NAME":"EARTH","TIME_SYSTEM":"UTC","RA_OF_ASC_NODE":"273.0791","TLE_LINE1":"1 49757U 21115AK  23172.53689051  .00000409  00000-0  43749-4 0  9998","REF_FRAME":"TEME","SITE":"AFETR","NORAD_CAT_ID":"49757","PERIOD":"95.437","RCS_SIZE":"LARGE","ARG_OF_PERICENTER":"90.4088","APOAPSIS":"540.319","MEAN_ELEMENT_THEORY":"SGP4","REV_AT_EPOCH":"8589","INCLINATION":"53.2150","EPHEMERIS_TYPE":"0","BSTAR":"0.00004374900000","ELEMENT_SET_NO":"999","MEAN_ANOMALY":"269.7001","CLASSIFICATION_TYPE":"U","EPOCH":"2023-06-21T12:53:07.340064","OBJECT_TYPE":"PAYLOAD","SEMIMAJOR_AXIS":"6917.871","OBJECT_ID":"2021-115AK","OBJECT_NAME":"STARLINK-3197","MEAN_MOTION_DDOT":"0.0000000000000","MEAN_MOTION_DOT":"0.00000409","LAUNCH_DATE":"2021-12-02","TLE_LINE2":"2 49757  53.2150 273.0791 0000843  90.4088 269.7001 15.08843235 85897"},{"APOAPSIS":"540.100","RA_OF_ASC_NODE":"273.0080","TLE_LINE1":"1 49758U 21115AL  23172.55064823  .00002444  00000-0  17151-3 0  9993","REF_FRAME":"TEME","SITE":"AFETR","NORAD_CAT_ID":"49758","RCS_SIZE":"LARGE","ARG_OF_PERICENTER":"68.4605","PERIOD":"95.437","TIME_SYSTEM":"UTC","MEAN_MOTION":"15.08848754","ECCENTRICITY":"0.00005520","FILE":"3939133","GP_ID":"234433062","COUNTRY_CODE":"US","PERIAPSIS":"539.337","DECAY_DATE":null,"CENTER_NAME":"EARTH","MEAN_MOTION_DDOT":"0.0000000000000","MEAN_MOTION_DOT":"0.00002444","LAUNCH_DATE":"2021-12-02","TLE_LINE2":"2 49758  53.2169 273.0080 0000552  68.4605 291.6446 15.08848754 85894","OBJECT_TYPE":"PAYLOAD","SEMIMAJOR_AXIS":"6917.854","OBJECT_ID":"2021-115AL","OBJECT_NAME":"STARLINK-3194","ELEMENT_SET_NO":"999","CLASSIFICATION_TYPE":"U","MEAN_ANOMALY":"291.6446","EPOCH":"2023-06-21T13:12:56.007072","MEAN_ELEMENT_THEORY":"SGP4","INCLINATION":"53.2169","REV_AT_EPOCH":"8589","BSTAR":"0.00017151000000","EPHEMERIS_TYPE":"0"},{"DECAY_DATE":null,"CENTER_NAME":"EARTH","PERIAPSIS":"539.145","COUNTRY_CODE":"US","FILE":"3939133","ECCENTRICITY":"0.00008350","GP_ID":"234432813","MEAN_MOTION":"15.08847504","TIME_SYSTEM":"UTC","ARG_OF_PERICENTER":"102.7193","RCS_SIZE":"LARGE","PERIOD":"95.437","NORAD_CAT_ID":"49759","TLE_LINE1":"1 49759U 21115AM  23172.53960991  .00002455  00000-0  17225-3 0  9997","REF_FRAME":"TEME","SITE":"AFETR","RA_OF_ASC_NODE":"273.0556","APOAPSIS":"540.300","EPHEMERIS_TYPE":"0","BSTAR":"0.00017225000000","REV_AT_EPOCH":"8589","INCLINATION":"53.2162","MEAN_ELEMENT_THEORY":"SGP4","EPOCH":"2023-06-21T12:57:02.296224","ELEMENT_SET_NO":"999","MEAN_ANOMALY":"257.3893","CLASSIFICATION_TYPE":"U","OBJECT_ID":"2021-115AM","OBJECT_NAME":"STARLINK-3204","SEMIMAJOR_AXIS":"6917.857","OBJECT_TYPE":"PAYLOAD","TLE_LINE2":"2 49759  53.2162 273.0556 0000835 102.7193 257.3893 15.08847504 85891","LAUNCH_DATE":"2021-12-02","MEAN_MOTION_DDOT":"0.0000000000000","MEAN_MOTION_DOT":"0.00002455"},{"APOAPSIS":"540.429","RCS_SIZE":"LARGE","ARG_OF_PERICENTER":"94.9915","PERIOD":"95.437","NORAD_CAT_ID":"49760","REF_FRAME":"TEME","SITE":"AFETR","TLE_LINE1":"1 49760U 21115AN  23172.55801278  .00001447  00000-0  10897-3 0  9991","RA_OF_ASC_NODE":"272.9736","TIME_SYSTEM":"UTC","CENTER_NAME":"EARTH","DECAY_DATE":null,"COUNTRY_CODE":"US","PERIAPSIS":"539.035","GP_ID":"234434064","FILE":"3939133","ECCENTRICITY":"0.00010070","MEAN_MOTION":"15.08844399","TLE_LINE2":"2 49760  53.2161 272.9736 0001007  94.9915 265.1192 15.08844399 85906","LAUNCH_DATE":"2021-12-02","MEAN_MOTION_DDOT":"0.0000000000000","MEAN_MOTION_DOT":"0.00001447","OBJECT_NAME":"STARLINK-3199","OBJECT_ID":"2021-115AN","SEMIMAJOR_AXIS":"6917.867","OBJECT_TYPE":"PAYLOAD","EPOCH":"2023-06-21T13:23:32.304192","MEAN_ANOMALY":"265.1192","CLASSIFICATION_TYPE":"U","ELEMENT_SET_NO":"999","BSTAR":"0.00010897000000","EPHEMERIS_TYPE":"0","INCLINATION":"53.2161","REV_AT_EPOCH":"8590","MEAN_ELEMENT_THEORY":"SGP4"}];
